ORBCOMM FM24 [-]        
1 25478U 98053D   23357.97216222  .00002323  00000+0  85644-3 0  9991
2 25478  45.0097 308.7076 0002130 343.1135  16.9641 14.35040278319903
ORBCOMM FM25 [-]        
1 25479U 98053E   23357.86716548  .00002139  00000+0  79292-3 0  9993
2 25479  45.0090 307.4393 0003727  28.5714 331.5337 14.35025268319905
ORBCOMM FM26 [-]        
1 25480U 98053F   23357.26733465  .00001757  00000+0  66631-3 0  9994
2 25480  45.0083 303.8499 0005107  58.9484 301.1864 14.34553399319763
ORBCOMM FM27 [+]        
1 25481U 98053G   23357.92278121  .00002187  00000+0  80989-3 0  9991
2 25481  45.0071 307.4370 0001712 299.2133  60.8543 14.35001234319881
ORBCOMM FM28 [-]        
1 25482U 98053H   23357.11835421  .00001600  00000+0  60017-3 0  9994
2 25482  45.0058 250.1870 0003795  87.0456 273.0826 14.35472003320396
ORBCOMM FM30 [-]        
1 25980U 99065A   23357.73021860  .00002005  00000+0  75121-3 0  9995
2 25980  45.0318 127.0593 0007230 183.6396 176.4400 14.34687783256626
ORBCOMM FM31 [-]        
1 25981U 99065B   23357.48781585  .00001820  00000+0  68624-3 0  9999
2 25981  45.0224 122.0033 0004589 201.0117 159.0542 14.34703657256147
ORBCOMM FM32 [+]        
1 25982U 99065C   23357.50863324  .00002010  00000+0  76835-3 0  9990
2 25982  45.0157 134.6965 0006725 202.5917 157.4634 14.33651399256793
